#dP2023 10  6  0  0  0.00000000      96 __u+U ITR00 FIT  IAC
## 2282 432000.00000000   900.00000000 60223 0.0000000000000
+  120   C06C07C08C09C10C11C12C13C14C16C19C20C21C22C23C24C25
+        C26C27C28C29C30C32C33C34C35C36C37C38C39C40C41C42C43
+        C44C45C46E02E03E04E05E07E08E09E10E11E12E13E14E15E18
+        E19E21E24E25E26E27E30E31E33E34E36G01G02G03G04G05G06
+        G07G08G09G10G11G12G13G14G15G16G17G18G19G20G21G22G23
+        G24G25G26G27G28G29G30G31G32J02J03J04R01R02R03R04R05
+        R07R08R09R11R12R13R14R15R16R17R18R19R20R21R22R24R25
+        R26  0  0  0  0  0  0  0  0  0  0  0  0  0  0  0  0
++         9  7  9  9  8  8  7  8  8  8  7  6  7  7  8  7  7
++         6  5  7  7  6  6  7  7  6  5  7  9 10  8  6  6  9
++         7  7  6  5  6  6  5  6  6  6  8  6  5  8  7  8  7
++         7  5  7  6  8  6  7  7  8  8  7  6  5  6  6  6  5
++         5  4  6  6  9  6  6  6  6  6  6  7  7  6  5  6  6
++         6  6  6  6  7  5  6  7  6  7  6  6  6  6  6  6  6
++         6  6  6  8  6  7  6  6  7  6  6  8  8  6  7  7  6
++         7  0  0  0  0  0  0  0  0  0  0  0  0  0  0  0  0
%c M  cc GPS ccc cccc cccc cccc cccc ccccc ccccc ccccc ccccc
%c cc cc ccc ccc cccc cccc cccc cccc ccccc ccccc ccccc ccccc
%f  0.0000000  0.000000000  0.00000000000  0.000000000000000
%f  0.0000000  0.000000000  0.00000000000  0.000000000000000
%i    0    0    0    0      0      0      0      0         0
%i    0    0    0    0      0      0      0      0         0
/* INFORMATION & ANALYSIS CENTER (IAC)      ULTRA-RAPID DATA
/* S/V CLOCKS ARE ALIGNED TO GNSS TIME                      
/* G:C1WC2W R:C1PC2P E:C1XC5X C:C2IC6I J:C1CC2S             
/* PCV:IGS20_2280 OL/AL:FES2004  NONE     YN ORB:CoN CLK:CoN
*  2023 10 06  0 45  0.00000000
PC06 -17092.485862  31179.214330 -22868.652446     43.405378
PC07  -6117.375084  38378.705271 -16012.226731   -113.228783
PC08  -4193.657019  20387.643676  36666.635550    311.420940
PC09 -11959.463246  29835.248800 -27160.274785     78.297725
PC10    561.917911  40756.690190  -9272.630262   -201.722970
PC11   7381.054131  14356.552149  22832.143920    188.659396
PC12  -9504.765511  23144.616708  12384.160932    909.308886
PC13   2639.209044  23884.571375  34838.614917    363.057520
PC14  13466.929293  23424.025827  -6865.242143    533.515861
PC16 -22806.810440  30568.567884 -18069.157544   -112.280244
PC19 -16800.407304 -16446.376439  15061.062260   -971.146641
PC20  -9009.393726 -26417.126765   -704.244918    227.333865
PC21  -4985.899926  21197.030898  17445.031784   -969.858022
PC22 -15357.769566   3517.191918  23020.995422   -278.369876
PC23  26684.367682  -1135.980375   8107.183365   -852.199008
PC24   7290.235636  16775.798381 -21092.692952    464.578204
PC25  24662.123854   9987.234027  -8459.187506    226.528719
PC26 -12468.046640  13394.845595 -21073.238415   -187.594148
PC27  15563.903354 -22739.535327  -4413.102552    209.303161
PC28  21843.834861 -13018.125627  11513.046976    157.356633
PC29 -15413.046864  -5936.495899 -22494.417590    183.884517
PC30    347.594416 -21034.624783 -18331.996815     -6.005489
PC32   4894.160949 -21174.464398 -17505.174850   -528.974599
PC33  16891.373293  16418.160737 -14959.920499   -958.532678
PC34    933.985897  20326.860390  19094.200044    274.787391
PC35 -21383.375084  13809.375212 -11482.041559    531.555615
PC36 -23926.431641 -11015.563827   9222.636106   -193.148142
PC37  13644.940569 -12736.812569  20765.737739   -845.280179
PC38 -13591.069837  18869.240592  35182.993989    109.297704
PC39 -25058.321560  31358.183654 -13269.345747     -5.089544
PC40 -10567.526684  35542.856560 -19793.740938    -39.040441
PC41  15621.429101  -2771.287952 -22913.355412   -874.274065
PC42   8065.343091  26612.507482   2229.077394   -529.069578
PC43  14911.909619   6899.306278  22548.040520     42.750511
PC44 -14825.823534  23284.979708   4170.959362    252.834758
PC45 -26483.034478   1432.012813  -8637.053512    -33.038245
PC46  -8580.212986 -16593.724101  20717.178030    -89.611391
PE02   2687.851095 -18847.538434  22663.110901     68.054380
PE03   8333.085196 -28285.118430  -2660.713502    -62.376503
PE04   5208.064885  24914.141522 -15111.960337   -227.756890
PE05  17010.317486 -15215.690519 -18854.213967     24.775011
PE07 -15642.257320  -7272.662523  24052.219880    -79.964845
PE08  -4803.145663 -25193.222594  14779.863046   -156.992901
PE09  15471.749483   7367.568795 -24139.648494   -181.136199
PE10  18073.322822   8929.473826  21674.950041   -568.972419
PE11  25654.791859   1966.731528  14623.507167   3046.785270
PE12   8499.137700  14035.495252  24633.509513   -725.053209
PE13 -25256.270885  -2398.338785 -15241.526208    -19.734043
PE14   9985.511344  14254.694925  16246.617373    360.364152
PE15  -8000.279417 -14140.761667 -24735.803717    -58.850645
PE18 -10987.273348 -22264.865031 -20466.212202    611.315946
PE19  -9933.570211  27424.262963   5051.372448  -1485.825605
PE21 -18514.082742   4114.193716 -22721.208658   -556.700541
PE24  24321.258534  14255.587860   9051.288783   -359.789234
PE25  18754.055755  -3774.907324  22598.797141     -2.819022
PE26 -27238.224232  10960.092889   3711.763018    242.838510
PE27 -24396.843249 -13745.231753  -9572.679278   -167.335870
PE30 -15459.777239 -23421.216639   9389.763539   -556.400088
PE31  15859.080295  23298.701798  -9041.477081     -6.840312
PE33 -14281.208845  17369.376531  19243.143448      0.079064
PE34  13661.838062 -17468.195944 -19618.774940    -70.809053
PE36  27485.664982 -10568.144837  -3020.934551   -125.896324
PG01   -363.932631 -15004.048222 -22222.614587    164.129920
PG02   6871.477913 -16654.702568 -18951.279078   -545.595940
PG03  -9204.093602 -21154.916568 -13402.323529    -96.006766
PG04   -607.214829 -24435.679899  10241.842869    176.187602
PG05  -4347.149267  15372.043877  21020.454469   -145.391587
PG06 -25886.926002   5544.713697  -2641.592508    536.736243
PG07 -17894.323834  -8442.238546  18412.520071     48.222027
PG08   5271.577762 -25805.822013   -197.514787   -145.660227
PG09  -8387.378673 -18373.630561  17135.562857    -40.552530
PG10  21534.934171   8008.994575 -13423.043289    -56.173162
PG11 -21382.596614  12223.745601   9887.122115   -401.769376
PG12   5052.456061  21298.193340 -15370.962069   -432.635804
PG13 -13412.691663  21767.206325   6568.328280    580.688155
PG14 -21773.995787 -10960.191007 -10726.726429    205.547304
PG15  -1250.382201  26380.151335  -1560.548996     84.279297
PG16  10641.021941 -10595.432950  21584.460168   -443.664026
PG17 -14682.162099  -2327.174091 -21580.219547    723.872035
PG18  19287.567136   6709.608772  17088.150751   -439.754162
PG19 -16619.224450   6254.319975 -19837.647345    381.007943
PG20 -14759.708250   7877.272182  20629.065883    408.307685
PG21   9647.316532 -16743.041179 -17274.919272    147.428616
PG22 -19826.054553  -5538.856297 -16167.824126    108.418237
PG23  20736.917909  16612.901316  -2156.632096     78.357647
PG24  -3688.710432  17382.824798 -20005.324721   -338.463088
PG25  16708.533497  20289.943399  -5035.530928    471.303067
PG26  18432.430696  -2993.395811  18888.325690    224.852072
PG27  12701.572565 -20051.935630  11224.936708    -50.646093
PG28  25641.243582  -5009.220002  -4813.296133    -20.508948
PG29   6485.434647  18736.393333  17577.153416   -609.879278
PG30 -24412.629644  -1238.093950  10830.361394   -481.360981
PG31  24392.950773  -9986.014703   4572.402044   -224.290529
PG32  15696.027919  -2438.130521 -21073.884330   -568.512014
PJ02 -22085.829146  19521.504553 -25565.279533     -5.171785
PJ03 -30053.659291  29311.333259   9160.744793     -4.343828
PJ04 -26242.602985  27338.955695  24400.102188     70.982502
PR01 -11785.486753 -10028.948743  20273.817095     67.086124
PR02  -8977.747382   9344.311576  22021.857178    -22.395582
PR03  -1355.237549  23116.662264  10809.776015     86.530100
PR04   6591.118250  23887.384638  -6073.096234    205.653400
PR05  11073.802937  11857.165564 -19690.423397    120.144894
PR07    927.679548 -23420.729055  -9963.550728     66.201959
PR08  -6911.055972 -23706.825614   6369.437403    -72.834127
PR09  19376.474964  -1964.350673  16446.876294    146.059518
PR11 -12998.114608 -13444.077250  17369.506180   -186.406788
PR12 -23939.047160  -8786.231162    -96.847968     32.033894
PR13 -20690.714195    237.194312 -14925.624613    -39.916312
PR14  -3768.961923  10475.849661 -22935.229778     25.363923
PR15  14075.462383  13592.364058 -16339.171354     85.610276
PR16  23946.522498   8734.279293   -147.168113     19.362923
PR17 -13361.540539  17963.809677  12188.777289     23.208171
PR18    561.698132  12374.600291  22323.084433    105.416903
PR19  13349.699053   2052.525254  21644.693053   -249.841942
PR20  21369.912489 -12481.334667   6129.460237   -101.262981
PR21  12953.852837 -17791.106038 -12925.474889    -43.345142
PR22  -1362.280903 -12126.355392 -22370.358124     87.340597
PR24 -20912.224553  13525.852158  -5432.303787    -27.092969
PR25  14107.163194 -17514.670295 -12056.431215     29.507920
PR26  -6842.176106 -23885.455287   5831.308768    -21.624589
EOF
